[{"OBJECT_NAME":"HXMT (HUIYAN)","OBJECT_ID":"2017-034A","EPOCH":"2026-03-31T07:11:40.166880","MEAN_MOTION":15.17736134,"ECCENTRICITY":0.00315387,"INCLINATION":43.0134,"RA_OF_ASC_NODE":256.5047,"ARG_OF_PERICENTER":8.8941,"MEAN_ANOMALY":351.246,"EPHEMERIS_TYPE":0,"CLASSIFICATION_TYPE":"U","NORAD_CAT_ID":42758,"ELEMENT_SET_NO":999,"REV_AT_EPOCH":48582,"BSTAR":0.00032421204,"MEAN_MOTION_DOT":6.509e-5,"MEAN_MOTION_DDOT":0},{"OBJECT_NAME":"SAOCOM 1A","OBJECT_ID":"2018-076A","EPOCH":"2026-03-31T07:06:45.525600","MEAN_MOTION":14.82165583,"ECCENTRICITY":0.00014881,"INCLINATION":97.8903,"RA_OF_ASC_NODE":278.1642,"ARG_OF_PERICENTER":84.9856,"MEAN_ANOMALY":275.1527,"EPHEMERIS_TYPE":0,"CLASSIFICATION_TYPE":"U","NORAD_CAT_ID":43641,"ELEMENT_SET_NO":999,"REV_AT_EPOCH":40456,"BSTAR":0.0001210409,"MEAN_MOTION_DOT":9.12e-6,"MEAN_MOTION_DDOT":0},{"OBJECT_NAME":"H-2A R/B","OBJECT_ID":"2018-084L","EPOCH":"2026-03-31T03:35:36.842208","MEAN_MOTION":15.42271055,"ECCENTRICITY":0.00235948,"INCLINATION":98.8702,"RA_OF_ASC_NODE":312.1374,"ARG_OF_PERICENTER":310.126,"MEAN_ANOMALY":49.7915,"EPHEMERIS_TYPE":0,"CLASSIFICATION_TYPE":"U","NORAD_CAT_ID":43682,"ELEMENT_SET_NO":999,"REV_AT_EPOCH":40908,"BSTAR":0.00055615219,"MEAN_MOTION_DOT":0.00024094,"MEAN_MOTION_DDOT":0},{"OBJECT_NAME":"SAOCOM 1B","OBJECT_ID":"2020-059A","EPOCH":"2026-03-31T06:14:32.424000","MEAN_MOTION":14.82157724,"ECCENTRICITY":0.00014804,"INCLINATION":97.8888,"RA_OF_ASC_NODE":277.2255,"ARG_OF_PERICENTER":86.0346,"MEAN_ANOMALY":274.1037,"EPHEMERIS_TYPE":0,"CLASSIFICATION_TYPE":"U","NORAD_CAT_ID":46265,"ELEMENT_SET_NO":999,"REV_AT_EPOCH":30194,"BSTAR":4.373066e-5,"MEAN_MOTION_DOT":2.96e-6,"MEAN_MOTION_DDOT":0},{"OBJECT_NAME":"CSS (TIANHE)","OBJECT_ID":"2021-035A","EPOCH":"2026-03-31T06:33:18.973728","MEAN_MOTION":15.6174534,"ECCENTRICITY":0.00037246,"INCLINATION":41.4667,"RA_OF_ASC_NODE":76.7249,"ARG_OF_PERICENTER":77.1096,"MEAN_ANOMALY":283.0159,"EPHEMERIS_TYPE":0,"CLASSIFICATION_TYPE":"U","NORAD_CAT_ID":48274,"ELEMENT_SET_NO":999,"REV_AT_EPOCH":28098,"BSTAR":0.00031137636,"MEAN_MOTION_DOT":0.0002746,"MEAN_MOTION_DDOT":0},{"OBJECT_NAME":"COSMOS 2550","OBJECT_ID":"2021-056A","EPOCH":"2026-03-28T11:49:31.757952","MEAN_MOTION":15.33828274,"ECCENTRICITY":0.000844,"INCLINATION":67.1421,"RA_OF_ASC_NODE":344.0047,"ARG_OF_PERICENTER":269.5686,"MEAN_ANOMALY":90.4502,"EPHEMERIS_TYPE":0,"CLASSIFICATION_TYPE":"U","NORAD_CAT_ID":48865,"ELEMENT_SET_NO":999,"REV_AT_EPOCH":26634,"BSTAR":1.89685e-7,"MEAN_MOTION_DOT":-1.86e-6,"MEAN_MOTION_DDOT":0},{"OBJECT_NAME":"CZ-2C R/B","OBJECT_ID":"2022-058K","EPOCH":"2026-03-31T00:56:53.308032","MEAN_MOTION":15.55862879,"ECCENTRICITY":0.00413964,"INCLINATION":50.1883,"RA_OF_ASC_NODE":208.3348,"ARG_OF_PERICENTER":292.4161,"MEAN_ANOMALY":67.2428,"EPHEMERIS_TYPE":0,"CLASSIFICATION_TYPE":"U","NORAD_CAT_ID":52794,"ELEMENT_SET_NO":999,"REV_AT_EPOCH":21345,"BSTAR":0.00066689353,"MEAN_MOTION_DOT":0.00048749,"MEAN_MOTION_DDOT":0},{"OBJECT_NAME":"CZ-2C R/B","OBJECT_ID":"2022-132E","EPOCH":"2026-03-31T06:27:59.679936","MEAN_MOTION":15.63894637,"ECCENTRICITY":0.00169812,"INCLINATION":97.2951,"RA_OF_ASC_NODE":94.2745,"ARG_OF_PERICENTER":20.3323,"MEAN_ANOMALY":339.8609,"EPHEMERIS_TYPE":0,"CLASSIFICATION_TYPE":"U","NORAD_CAT_ID":54039,"ELEMENT_SET_NO":999,"REV_AT_EPOCH":19374,"BSTAR":0.00048820472,"MEAN_MOTION_DOT":0.00046223,"MEAN_MOTION_DDOT":0},{"OBJECT_NAME":"GSLV R/B","OBJECT_ID":"2022-138AN","EPOCH":"2026-03-31T05:56:06.148896","MEAN_MOTION":14.96910244,"ECCENTRICITY":0.0023969,"INCLINATION":87.3858,"RA_OF_ASC_NODE":159.1451,"ARG_OF_PERICENTER":75.7385,"MEAN_ANOMALY":284.6506,"EPHEMERIS_TYPE":0,"CLASSIFICATION_TYPE":"U","NORAD_CAT_ID":54149,"ELEMENT_SET_NO":999,"REV_AT_EPOCH":18715,"BSTAR":0.00030007541,"MEAN_MOTION_DOT":3.491e-5,"MEAN_MOTION_DDOT":0},{"OBJECT_NAME":"XRISM","OBJECT_ID":"2023-137A","EPOCH":"2026-03-30T20:05:01.567680","MEAN_MOTION":15.1174939,"ECCENTRICITY":0.00079331,"INCLINATION":31.0017,"RA_OF_ASC_NODE":146.8569,"ARG_OF_PERICENTER":251.8412,"MEAN_ANOMALY":108.1362,"EPHEMERIS_TYPE":0,"CLASSIFICATION_TYPE":"U","NORAD_CAT_ID":57800,"ELEMENT_SET_NO":999,"REV_AT_EPOCH":14099,"BSTAR":0.00043674076,"MEAN_MOTION_DOT":7.737e-5,"MEAN_MOTION_DDOT":0},{"OBJECT_NAME":"ACS3","OBJECT_ID":"2024-077B","EPOCH":"2026-03-31T05:39:04.240800","MEAN_MOTION":13.90608577,"ECCENTRICITY":0.0073055,"INCLINATION":97.1959,"RA_OF_ASC_NODE":26.5048,"ARG_OF_PERICENTER":27.7017,"MEAN_ANOMALY":332.801,"EPHEMERIS_TYPE":0,"CLASSIFICATION_TYPE":"U","NORAD_CAT_ID":59588,"ELEMENT_SET_NO":999,"REV_AT_EPOCH":9719,"BSTAR":0.018557116,"MEAN_MOTION_DOT":0.00023664,"MEAN_MOTION_DDOT":0},{"OBJECT_NAME":"SZ-21 MODULE","OBJECT_ID":"2025-246C","EPOCH":"2026-03-31T06:20:06.452448","MEAN_MOTION":15.7026062,"ECCENTRICITY":0.00022503,"INCLINATION":41.4737,"RA_OF_ASC_NODE":70.3854,"ARG_OF_PERICENTER":217.001,"MEAN_ANOMALY":143.0678,"EPHEMERIS_TYPE":0,"CLASSIFICATION_TYPE":"U","NORAD_CAT_ID":66515,"ELEMENT_SET_NO":999,"REV_AT_EPOCH":2146,"BSTAR":0.00037632452,"MEAN_MOTION_DOT":0.00047078,"MEAN_MOTION_DDOT":0}]
