HXMT (HUIYAN)           
1 42758U 17034A   26090.29977045  .00006509  00000+0  32421-3 0  9995
2 42758  43.0134 256.5047 0031538   8.8941 351.2460 15.17736134485828
SAOCOM 1A               
1 43641U 18076A   26090.29636025  .00000912  00000+0  12104-3 0  9992
2 43641  97.8903 278.1642 0001488  84.9856 275.1527 14.82165583404568
H-2A R/B                
1 43682U 18084L   26090.14973197  .00024094  00000+0  55615-3 0  9995
2 43682  98.8702 312.1374 0023594 310.1260  49.7915 15.42271055409084
SAOCOM 1B               
1 46265U 20059A   26090.26009750  .00000296  00000+0  43731-4 0  9993
2 46265  97.8888 277.2255 0001480  86.0346 274.1037 14.82157724301945
CSS (TIANHE)            
1 48274U 21035A   26090.27313627  .00027460  00000+0  31138-3 0  9991
2 48274  41.4667  76.7249 0003724  77.1096 283.0159 15.61745340280987
COSMOS 2550             
1 48865U 21056A   26087.49272868 -.00000186  00000+0  18968-6 0  9997
2 48865  67.1421 344.0047 0008440 269.5686  90.4502 15.33828274266348
CZ-2C R/B               
1 52794U 22058K   26090.03950588  .00048749  00000+0  66689-3 0  9998
2 52794  50.1883 208.3348 0041396 292.4161  67.2428 15.55862879213450
CZ-2C R/B               
1 54039U 22132E   26090.26944074  .00046223  00000+0  48820-3 0  9995
2 54039  97.2951  94.2745 0016981  20.3323 339.8609 15.63894637193749
GSLV R/B                
1 54149U 22138AN  26090.24729339  .00003491  00000+0  30008-3 0  9995
2 54149  87.3858 159.1451 0023969  75.7385 284.6506 14.96910244187157
XRISM                   
1 57800U 23137A   26089.83682370  .00007737  00000+0  43674-3 0  9998
2 57800  31.0017 146.8569 0007933 251.8412 108.1362 15.11749390140992
ACS3                    
1 59588U 24077B   26090.23546575  .00023664  00000+0  18557-1 0  9996
2 59588  97.1959  26.5048 0073055  27.7017 332.8010 13.90608577 97195
SZ-21 MODULE            
1 66515U 25246C   26090.26396357  .00047078  00000+0  37632-3 0  9999
2 66515  41.4737  70.3854 0002250 217.0010 143.0678 15.70260620 21469
